HORYU-4                 
1 41340U 16012D   20287.42795801  .00000519  00000-0  32385-4 0  9997
2 41340  31.0056 300.4451 0013863 239.8266 120.0996 15.01580380255621
E-ST@R-II               
1 41459U 16025D   20288.41527735  .00002511  00000-0  12830-3 0  9997
2 41459  98.1128  44.6964 0164115 171.0769 189.3448 15.06762895245351
AAUSAT 4                
1 41460U 16025E   20288.43193933  .00002965  00000-0  14579-3 0  9995
2 41460  98.1101  47.4834 0152596 158.2322 202.5485 15.09234492245587
BEESAT-4                
1 41619U 16040W   20287.60012068  .00001317  00000-0  56640-4 0  9991
2 41619  97.3069 344.2748 0012553 119.3561 240.8933 15.24315507227396
CANX-7                  
1 41788U 16059F   20288.22614900  .00008062  00000-0  10671-2 0  9996
2 41788  98.2559  19.2265 0025018 268.4449  91.3856 14.79986660217374
RAVAN                   
1 41849U 16067B   20287.59199440  .00000838  00000-0  74938-4 0  9990
2 41849  97.9422  39.5228 0008437 197.1673 162.9265 14.98654463214318
CELTEE 1                
1 41850U 16067C   20287.76400732 -.00000081  00000-0 -17307-5 0  9990
2 41850  97.9357  37.0690 0008240 208.2201 151.8575 14.97237895214200
OPTICUBE 04             
1 41851U 16067D   20287.58178500  .00000474  00000-0  46508-4 0  9994
2 41851  97.9346  36.4362 0008267 208.2059 151.8715 14.96961366214154
AEROCUBE 8D             
1 41852U 16067E   20288.26654248  .00000601  00000-0  57583-4 0  9996
2 41852  97.9361  36.9747 0008764 206.1662 153.9118 14.96978928214234
AEROCUBE 8C             
1 41853U 16067F   20287.36507115  .00000054  00000-0  10059-4 0  9996
2 41853  97.9345  35.9536 0009392 214.0434 146.0185 14.96935843214095
PROMETHEUS 2-1          
1 41854U 16067G   20287.57553242  .00000520  00000-0  50095-4 0  9994
2 41854  97.9354  36.5733 0009823 210.9688 149.0955 14.97290245214142
PROMETHEUS 2-3          
1 41855U 16067H   20287.57523079  .00000512  00000-0  49459-4 0  9993
2 41855  97.9356  36.6116 0010002 211.4731 148.5893 14.97299611214148
INS-1B                  
1 41954U 17008G   20287.72476951  .00001203  00000-0  50922-4 0  9997
2 41954  97.3423 349.9472 0007503 237.8961 122.1549 15.25065218203398
BGUSAT                  
1 41999U 17008BD  20287.43662936  .00002374  00000-0  89629-4 0  9990
2 41999  97.3557 354.4959 0006249 245.5780 114.4808 15.27988805202969
DIDO-2                  
1 42000U 17008BE  20287.64860152  .00000769  00000-0  33980-4 0  9992
2 42000  97.3429 350.3294 0006712 261.6954  98.3523 15.24674559202773
PEASSS                  
1 42015U 17008BV  20287.60140990  .00001089  00000-0  45290-4 0  9998
2 42015  97.3459 352.1313 0004590 263.6707  96.4009 15.25872423203369
AL-FARABI 1             
1 42016U 17008BW  20287.75155088  .00001410  00000-0  56298-4 0  9997
2 42016  97.3492 353.5265 0004428 261.4771  98.5966 15.26788196203577
NAYIF-1 (EO-88)         
1 42017U 17008BX  20288.18579191  .00001459  00000-0  58091-4 0  9997
2 42017  97.3486 353.9636 0004502 258.6137 101.4596 15.26832752203665
UCLSAT                  
1 42765U 17036A   20288.42164961  .00001164  00000-0  51174-4 0  9998
2 42765  97.2876 339.3973 0010305 335.0146  25.0592 15.23792219184101
LITUANICASAT-2          
1 42768U 17036D   20287.29948563  .00001912  00000-0  80427-4 0  9997
2 42768  97.2940 338.4808 0013292 325.8137  34.2243 15.24516431183798
AALTO-1                 
1 42775U 17036L   20288.39188248  .00000674  00000-0  32446-4 0  9995
2 42775  97.2850 336.8413 0012725 327.5325  32.5128 15.22015056183763
URSA MAIOR              
1 42776U 17036M   20287.70900030  .00000764  00000-0  36162-4 0  9990
2 42776  97.2863 336.5171 0012573 329.8126  30.2385 15.22213589183672
COMPASS 2               
1 42777U 17036N   20287.59882562  .00001485  00000-0  63569-4 0  9999
2 42777  97.2926 339.1398 0011008 327.4287  32.6270 15.24282057183797
DIAMOND RED             
1 42783U 17036U   20287.42034180  .00000928  00000-0  42287-4 0  9998
2 42783  97.2877 337.5676 0011166 340.9600  19.1218 15.23054792183709
PEGASUS                 
1 42784U 17036V   20288.40595244  .00001056  00000-0  47134-4 0  9990
2 42784  97.2881 339.0227 0010891 335.9151  24.1576 15.23465787183885
DIAMOND GREEN           
1 42785U 17036W   20288.40474849  .00000919  00000-0  41893-4 0  9991
2 42785  97.2878 338.5621 0010987 337.9979  22.0785 15.23052573183840
DIAMOND BLUE            
1 42786U 17036X   20287.41833463  .00000927  00000-0  42210-4 0  9996
2 42786  97.2879 337.5993 0010948 342.0588  18.0261 15.23054994183699
NUDTSAT                 
1 42787U 17036Y   20287.96265851  .00002445  00000-0  10093-3 0  9997
2 42787  97.2932 340.2759 0011800 334.0217  26.0424 15.24912014183753
SUCHAI                  
1 42788U 17036Z   20287.40077541  .00001275  00000-0  55371-4 0  9993
2 42788  97.2892 338.7484 0010467 337.8503  22.2281 15.24060893183841
SKCUBE                  
1 42789U 17036AA  20287.72244389  .00001148  00000-0  50407-4 0  9999
2 42789  97.2885 338.8755 0010341 337.1856  22.8921 15.23882613183805
VZLUSAT-1               
1 42790U 17036AB  20287.69047799  .00001584  00000-0  66474-4 0  9998
2 42790  97.2913 340.0017 0009721 334.5848  25.4911 15.24879348183863
ROBUSTA-1B              
1 42792U 17036AD  20288.38332155  .00001216  00000-0  52896-4 0  9995
2 42792  97.2887 339.8074 0009858 335.3069  24.7696 15.24087897183939
CICERO 6                
1 42793U 17036AE  20287.70194410  .00000800  00000-0  36546-4 0  9993
2 42793  97.2861 338.3913 0009390 341.8419  18.2482 15.23340231183866
D-SAT                   
1 42794U 17036AF  20287.73422371  .00000155  00000-0  18936-4 0  9993
2 42794  97.4850 314.4790 0125224 330.8110  28.6149 14.91336825180327
CORVUS BC2              
1 42846U 17042X   20287.60075494  .00000210  00000-0  25862-4 0  9992
2 42846  97.5041 165.7182 0008165 239.3269 120.7147 14.92148367177020
CORVUS BC1              
1 42847U 17042Y   20288.39306514  .00000055  00000-0  10622-4 0  9995
2 42847  97.5041 166.6644 0007866 235.1105 124.9375 14.92250449177141
MIRATA                  
1 43015U 17073C   20287.53760948  .00001452  00000-0  11635-3 0  9993
2 43015  97.7113 195.2323 0253394  23.6025 337.6575 14.79864912156685
MAKERSAT 0              
1 43016U 17073D   20287.73855931  .00001062  00000-0  86744-4 0  9994
2 43016  97.7148 195.5794 0256289  24.3104 336.9950 14.79370965156691
DELLINGR (RBLE)         
1 43021U 98067NJ  20288.47684783  .00020102  00000-0  13942-3 0  9994
2 43021  51.6343  30.1208 0000191 115.4750 244.6269 15.74449853165591
AEROCUBE 7B (OCSD B)    
1 43042U 17071F   20287.74764321  .00003859  00000-0  90850-4 0  9993
2 43042  51.6372 205.7554 0005121 116.3055 243.8458 15.44495699160655
AEROCUBE 7C (OCSD C)    
1 43043U 17071G   20287.81772144  .00003830  00000-0  90303-4 0  9996
2 43043  51.6372 205.4885 0005313 120.3187 239.8326 15.44468975160638
CHEFSAT                 
1 43044U 17071H   20288.18010608  .00008768  00000-0  15992-3 0  9993
2 43044  51.6367 184.2360 0005081 130.8883 229.2547 15.50266357160956
ASGARDIA 1              
1 43049U 17071N   20287.22729949  .00003716  00000-0  87915-4 0  9990
2 43049  51.6381 207.6342 0002989 127.5261 232.5998 15.44456623160546
ISARA                   
1 43050U 17071P   20287.73301549  .00008152  00000-0  15608-3 0  9998
2 43050  51.6352 190.0968 0003053 134.1805 225.9435 15.48978055160832
PROPCUBE 2 (FAUNA)      
1 43052U 17071R   20287.82340640  .00004217  00000-0  96841-4 0  9992
2 43052  51.6374 202.6303 0003006 127.2902 232.8359 15.44987987160663
CORVUS BC3              
1 43118U 18004H   20287.65578576  .00000716  00000-0  32915-4 0  9996
2 43118  97.4334 356.9054 0010310   7.1038 353.0343 15.23544226152996
MICROMAS-2A             
1 43131U 18004W   20287.65475115  .00001755  00000-0  71745-4 0  9994
2 43131  97.4391 359.0793 0008935   5.5464 354.5872 15.25686639153118
SPACEBEE-4              
1 43139U 18004AE  20287.77906296  .00002568  00000-0  99183-4 0  9993
2 43139  97.4437   0.6895 0008126   6.1355 353.9982 15.27159996153216
SPACEBEE-3              
1 43140U 18004AF  20287.64897601  .00003414  00000-0  12689-3 0  9996
2 43140  97.4456   1.4469 0007658   4.7857 355.3455 15.28205266153242
SPACEBEE-2              
1 43141U 18004AG  20287.66870837  .00003583  00000-0  13161-3 0  9994
2 43141  97.4472   1.8059 0007590   3.5958 356.5335 15.28561690153262
SPACEBEE-1              
1 43142U 18004AH  20287.67235723  .00003927  00000-0  14218-3 0  9991
2 43142  97.4477   2.1462 0007515   3.1817 356.9469 15.28979669153279
CICERO 7                
1 43143U 18004AJ  20287.45730016  .00001725  00000-0  70562-4 0  9992
2 43143  97.4368 359.0353 0007533  17.7125 342.4374 15.25694518153106
GOMX-4B                 
1 43196U 18015E   20288.36454327  .00000389  00000-0  18727-4 0  9991
2 43196  97.4542  56.1164 0019787  49.0289 311.2656 15.24468528150019
GOMX-4A                 
1 43197U 18015F   20288.36988479  .00000700  00000-0  31143-4 0  9996
2 43197  97.4530  56.2522 0020219  49.7587  25.8901 15.24688143150036
UBAKUSAT                
1 43467U 98067NQ  20288.46126208  .00056706  00000-0  24377-3 0  9993
2 43467  51.6342  26.0417 0002284 343.2968  16.7959 15.84469044138912
CUBERRT                 
1 43546U 98067NU  20287.60778875  .00112057  00000-0  53294-3 0  9991
2 43546  51.6325  32.3971 0001433 350.2348   9.8626 15.82055552128883
TEMPEST-D               
1 43547U 98067NV  20287.73509996  .00006462  00000-0  72173-4 0  9992
2 43547  51.6357  74.0431 0004742 139.3034 220.8316 15.64195134128025
RAINCUBE                
1 43548U 98067NW  20287.76012390  .00067915  00000-0  30364-3 0  9998
2 43548  51.6303  38.5761 0001402 279.6235  80.4609 15.83571183128948
HALOSAT                 
1 43549U 98067NX  20287.72946823  .00039706  00000-0  20084-3 0  9997
2 43549  51.6342  40.7715 0001514 244.0569 116.0277 15.81151115128478
